[{"OBJECT_NAME":"STARLINK-32872","OBJECT_ID":"2025-032Q","EPOCH":"2026-03-09T02:05:11.912352","MEAN_MOTION":15.27581564,"ECCENTRICITY":0.00018528,"INCLINATION":43.0033,"RA_OF_ASC_NODE":339.8177,"ARG_OF_PERICENTER":257.3444,"MEAN_ANOMALY":102.72,"EPHEMERIS_TYPE":0,"CLASSIFICATION_TYPE":"U","NORAD_CAT_ID":63019,"ELEMENT_SET_NO":999,"REV_AT_EPOCH":6052,"BSTAR":0.0013464023,"MEAN_MOTION_DOT":0.00036976,"MEAN_MOTION_DDOT":0},{"OBJECT_NAME":"CZ-6A DEB","OBJECT_ID":"2024-140AAN","EPOCH":"2026-03-09T15:08:07.195776","MEAN_MOTION":15.20547394,"ECCENTRICITY":0.0064261,"INCLINATION":89.3669,"RA_OF_ASC_NODE":306.3092,"ARG_OF_PERICENTER":93.6352,"MEAN_ANOMALY":267.2246,"EPHEMERIS_TYPE":0,"CLASSIFICATION_TYPE":"U","NORAD_CAT_ID":61480,"ELEMENT_SET_NO":999,"REV_AT_EPOCH":8198,"BSTAR":0.0033609,"MEAN_MOTION_DOT":0.00078405,"MEAN_MOTION_DDOT":0}]
